{
  "type": "FeatureCollection",
  "features": [
    {
      "type": "Feature",
      "properties": {
        "norad_id": 28051,
        "name": "IRS-P6 (RESOURCESAT-1)",
        "group": "resource",
        "lat": 39.63462592340282,
        "lon": 18.250868822797838,
        "alt_km": 806.6414274903336,
        "timestamp": "2025-12-10T14:53:36.779092+00:00",
        "meta_object_name": "IRS-P6 (RESOURCESAT-1)",
        "meta_object_id": "2003-046A",
        "meta_epoch": "2025-12-10T06:57:56.132064",
        "meta_mean_motion": 14.36072982,
        "meta_eccentricity": 0.00639795,
        "meta_inclination": 98.2176,
        "meta_ra_of_asc_node": 24.8104,
        "meta_arg_of_pericenter": 188.0382,
        "meta_mean_anomaly": 305.8,
        "meta_ephemeris_type": 0,
        "meta_classification_type": "U",
        "meta_norad_cat_id": 28051,
        "meta_element_set_no": 999,
        "meta_rev_at_epoch": 15341,
        "meta_bstar": 9.7129322e-05,
        "meta_mean_motion_dot": 2.48e-06,
        "meta_mean_motion_ddot": 0,
        "tle_line1": "1 28051U 03046A   25344.29023301  .00000248  00000+0  97129-4 0  9992",
        "tle_line2": "2 28051  98.2176  24.8104 0063979 188.0382 305.8000 14.36072982153416"
      },
      "geometry": {
        "type": "Point",
        "coordinates": [
          18.250868822797838,
          39.63462592340282
        ]
      }
    },
    {
      "type": "Feature",
      "properties": {
        "norad_id": 28220,
        "name": "SHIYAN-1 (SY-1)",
        "group": "resource",
        "lat": -65.69779019037007,
        "lon": 63.926579139725106,
        "alt_km": 485.89502420452754,
        "timestamp": "2025-12-10T14:53:36.779103+00:00",
        "meta_object_name": "SHIYAN-1 (SY-1)",
        "meta_object_id": "2004-012A",
        "meta_epoch": "2025-12-10T04:11:03.635232",
        "meta_mean_motion": 15.28033489,
        "meta_eccentricity": 0.00057877,
        "meta_inclination": 97.8933,
        "meta_ra_of_asc_node": 45.561,
        "meta_arg_of_pericenter": 335.8258,
        "meta_mean_anomaly": 24.2708,
        "meta_ephemeris_type": 0,
        "meta_classification_type": "U",
        "meta_norad_cat_id": 28220,
        "meta_element_set_no": 999,
        "meta_rev_at_epoch": 18217,
        "meta_bstar": 0.00067493114,
        "meta_mean_motion_dot": 0.00018409,
        "meta_mean_motion_ddot": 0,
        "tle_line1": "1 28220U 04012A   25344.17434763  .00018409  00000+0  67493-3 0  9997",
        "tle_line2": "2 28220  97.8933  45.5610 0005787 335.8258  24.2708 15.28033489182172"
      },
      "geometry": {
        "type": "Point",
        "coordinates": [
          63.926579139725106,
          -65.69779019037007
        ]
      }
    },
    {
      "type": "Feature",
      "properties": {
        "norad_id": 28376,
        "name": "AURA",
        "group": "resource",
        "lat": 60.85632058190971,
        "lon": 130.04911678450762,
        "alt_km": 683.4544790870896,
        "timestamp": "2025-12-10T14:53:36.779112+00:00",
        "meta_object_name": "AURA",
        "meta_object_id": "2004-026A",
        "meta_epoch": "2025-12-10T06:08:12.238944",
        "meta_mean_motion": 14.60937544,
        "meta_eccentricity": 0.00011959,
        "meta_inclination": 98.3182,
        "meta_ra_of_asc_node": 294.4708,
        "meta_arg_of_pericenter": 94.0638,
        "meta_mean_anomaly": 266.0699,
        "meta_ephemeris_type": 0,
        "meta_classification_type": "U",
        "meta_norad_cat_id": 28376,
        "meta_element_set_no": 999,
        "meta_rev_at_epoch": 13862,
        "meta_bstar": 0.00037293611,
        "meta_mean_motion_dot": 1.779e-05,
        "meta_mean_motion_ddot": 0,
        "tle_line1": "1 28376U 04026A   25344.25569721  .00001779  00000+0  37294-3 0  9994",
        "tle_line2": "2 28376  98.3182 294.4708 0001195  94.0638 266.0699 14.60937544138620"
      },
      "geometry": {
        "type": "Point",
        "coordinates": [
          130.04911678450762,
          60.85632058190971
        ]
      }
    },
    {
      "type": "Feature",
      "properties": {
        "norad_id": 28649,
        "name": "IRS-P5 (CARTOSAT-1)",
        "group": "resource",
        "lat": 71.67857007472814,
        "lon": -145.26129787588184,
        "alt_km": 589.3634575041569,
        "timestamp": "2025-12-10T14:53:36.779122+00:00",
        "meta_object_name": "IRS-P5 (CARTOSAT-1)",
        "meta_object_id": "2005-017A",
        "meta_epoch": "2025-12-10T07:58:16.810464",
        "meta_mean_motion": 14.90391268,
        "meta_eccentricity": 0.00013607,
        "meta_inclination": 97.5498,
        "meta_ra_of_asc_node": 10.8521,
        "meta_arg_of_pericenter": 45.9839,
        "meta_mean_anomaly": 314.1491,
        "meta_ephemeris_type": 0,
        "meta_classification_type": "U",
        "meta_norad_cat_id": 28649,
        "meta_element_set_no": 999,
        "meta_rev_at_epoch": 11568,
        "meta_bstar": 0.00022881188,
        "meta_mean_motion_dot": 2.175e-05,
        "meta_mean_motion_ddot": 0,
        "tle_line1": "1 28649U 05017A   25344.33213901  .00002175  00000+0  22881-3 0  9990",
        "tle_line2": "2 28649  97.5498  10.8521 0001360  45.9839 314.1491 14.90391268115685"
      },
      "geometry": {
        "type": "Point",
        "coordinates": [
          -145.26129787588184,
          71.67857007472814
        ]
      }
    },
    {
      "type": "Feature",
      "properties": {
        "norad_id": 28893,
        "name": "SINAH 1",
        "group": "resource",
        "lat": -57.676047424478426,
        "lon": 126.44444897419395,
        "alt_km": 697.4812266035597,
        "timestamp": "2025-12-10T14:53:36.779131+00:00",
        "meta_object_name": "SINAH 1",
        "meta_object_id": "2005-043D",
        "meta_epoch": "2025-12-10T06:57:35.693280",
        "meta_mean_motion": 14.63958403,
        "meta_eccentricity": 0.00152166,
        "meta_inclination": 98.2601,
        "meta_ra_of_asc_node": 112.8407,
        "meta_arg_of_pericenter": 144.2562,
        "meta_mean_anomaly": 215.9662,
        "meta_ephemeris_type": 0,
        "meta_classification_type": "U",
        "meta_norad_cat_id": 28893,
        "meta_element_set_no": 999,
        "meta_rev_at_epoch": 7288,
        "meta_bstar": 0.00017248264,
        "meta_mean_motion_dot": 8.55e-06,
        "meta_mean_motion_ddot": 0,
        "tle_line1": "1 28893U 05043D   25344.28999645  .00000855  00000+0  17248-3 0  9994",
        "tle_line2": "2 28893  98.2601 112.8407 0015216 144.2562 215.9662 14.63958403 72889"
      },
      "geometry": {
        "type": "Point",
        "coordinates": [
          126.44444897419395,
          -57.676047424478426
        ]
      }
    },
    {
      "type": "Feature",
      "properties": {
        "norad_id": 29079,
        "name": "EROS B",
        "group": "resource",
        "lat": -58.76606028174051,
        "lon": -91.1916479227615,
        "alt_km": 372.7663298787311,
        "timestamp": "2025-12-10T14:53:36.779140+00:00",
        "meta_object_name": "EROS B",
        "meta_object_id": "2006-014A",
        "meta_epoch": "2025-12-10T07:44:43.423584",
        "meta_mean_motion": 15.67260192,
        "meta_eccentricity": 0.00017419,
        "meta_inclination": 97.3478,
        "meta_ra_of_asc_node": 100.7829,
        "meta_arg_of_pericenter": 288.9721,
        "meta_mean_anomaly": 71.1351,
        "meta_ephemeris_type": 0,
        "meta_classification_type": "U",
        "meta_norad_cat_id": 29079,
        "meta_element_set_no": 999,
        "meta_rev_at_epoch": 9042,
        "meta_bstar": 0.0018730961,
        "meta_mean_motion_dot": 0.00205556,
        "meta_mean_motion_ddot": 0,
        "tle_line1": "1 29079U 06014A   25344.32272481  .00205556  00000+0  18731-2 0  9999",
        "tle_line2": "2 29079  97.3478 100.7829 0001741 288.9721  71.1351 15.67260192 90426"
      },
      "geometry": {
        "type": "Point",
        "coordinates": [
          -91.1916479227615,
          -58.76606028174051
        ]
      }
    },
    {
      "type": "Feature",
      "properties": {
        "norad_id": 29228,
        "name": "RESURS-DK 1",
        "group": "resource",
        "lat": -31.529529427891674,
        "lon": -59.725446938458035,
        "alt_km": 531.6415080203387,
        "timestamp": "2025-12-10T14:53:36.779150+00:00",
        "meta_object_name": "RESURS-DK 1",
        "meta_object_id": "2006-021A",
        "meta_epoch": "2025-12-10T07:36:01.525248",
        "meta_mean_motion": 15.12139478,
        "meta_eccentricity": 0.00074883,
        "meta_inclination": 69.9335,
        "meta_ra_of_asc_node": 108.1,
        "meta_arg_of_pericenter": 261.6043,
        "meta_mean_anomaly": 98.4274,
        "meta_ephemeris_type": 0,
        "meta_classification_type": "U",
        "meta_norad_cat_id": 29228,
        "meta_element_set_no": 999,
        "meta_rev_at_epoch": 7401,
        "meta_bstar": 0.0002425432,
        "meta_mean_motion_dot": 4.087e-05,
        "meta_mean_motion_ddot": 0,
        "tle_line1": "1 29228U 06021A   25344.31668432  .00004087  00000+0  24254-3 0  9991",
        "tle_line2": "2 29228  69.9335 108.1000 0007488 261.6043  98.4274 15.12139478 74016"
      },
      "geometry": {
        "type": "Point",
        "coordinates": [
          -59.725446938458035,
          -31.529529427891674
        ]
      }
    }
  ]
}